[{"OBJECT_NAME":"STARLINK-34804","OBJECT_ID":"2025-161M","EPOCH":"2026-03-09T21:59:26.614464","MEAN_MOTION":15.30210069,"ECCENTRICITY":8.97e-5,"INCLINATION":53.1582,"RA_OF_ASC_NODE":293.2135,"ARG_OF_PERICENTER":100.5904,"MEAN_ANOMALY":259.5198,"EPHEMERIS_TYPE":0,"CLASSIFICATION_TYPE":"U","NORAD_CAT_ID":65026,"ELEMENT_SET_NO":999,"REV_AT_EPOCH":3537,"BSTAR":0.00099405423,"MEAN_MOTION_DOT":0.00029207,"MEAN_MOTION_DDOT":0},{"OBJECT_NAME":"CZ-2C R\/B","OBJECT_ID":"2024-218A","EPOCH":"2026-03-09T22:16:31.791072","MEAN_MOTION":15.22960743,"ECCENTRICITY":0.00453409,"INCLINATION":97.5416,"RA_OF_ASC_NODE":83.973,"ARG_OF_PERICENTER":359.5317,"MEAN_ANOMALY":0.5869,"EPHEMERIS_TYPE":0,"CLASSIFICATION_TYPE":"U","NORAD_CAT_ID":62078,"ELEMENT_SET_NO":999,"REV_AT_EPOCH":7134,"BSTAR":0.00039378379,"MEAN_MOTION_DOT":9.445e-5,"MEAN_MOTION_DDOT":0}]
